NORAD_CAT_ID,OBJECT_NAME,OBJECT_TYPE,EPOCH,MEAN_MOTION,ECCENTRICITY,INCLINATION,RA_OF_ASC_NODE,ARG_OF_PERICENTER,MEAN_ANOMALY,BSTAR,MEAN_MOTION_DOT,MEAN_MOTION_DDOT,TLE_LINE0,TLE_LINE1,TLE_LINE2,SEMIMAJOR_AXIS,PERIOD,APOGEE,PERIGEE,DECAYED
55281.0,STARLINK-5298,PAYLOAD,2024-04-21 13:52:04,14.98328097,0.0003835,69.9979,336.8886,273.4501,86.622,-8.5746e-05,-1.116e-05,0.0,0 STARLINK-5298,1 55281U 23010N   24112.57782660 -.00001116  00000-0 -85746-4 0  9993,2 55281  69.9979 336.8886 0003835 273.4501  86.6220 14.98328097 69858,6950.199,96.107,574.729,569.398,0.0
55281.0,STARLINK-5298,PAYLOAD,2024-04-21 20:16:35,14.98342426,0.0002799,70.0,336.2182,267.7272,92.3566,0.00012954,1.453e-05,0.0,0 STARLINK-5298,1 55281U 23010N   24112.84485261  .00001453  00000-0  12954-3 0  9992,2 55281  70.0000 336.2182 0002799 267.7272  92.3566 14.98342426 69598,6950.154,96.106,573.965,570.074,0.0
55281.0,STARLINK-5298,PAYLOAD,2024-04-21 21:52:43,14.98339566,0.0002348,70.0013,336.051,250.3159,109.7747,0.00013725,1.545e-05,0.0,0 STARLINK-5298,1 55281U 23010N   24112.91161365  .00001545  00000-0  13725-3 0  9995,2 55281  70.0013 336.0510 0002348 250.3159 109.7747 14.98339566 69907,6950.163,96.106,573.66,570.396,0.0
55281.0,STARLINK-5298,PAYLOAD,2024-04-22 01:04:59,14.98345864,0.0002604,70.0007,335.715,251.6542,108.4334,0.00019229,2.203e-05,0.0,0 STARLINK-5298,1 55281U 23010N   24113.04512775  .00002203  00000-0  19229-3 0  9992,2 55281  70.0007 335.7150 0002604 251.6542 108.4334 14.98345864 69929,6950.144,96.106,573.819,570.199,0.0
55281.0,STARLINK-5298,PAYLOAD,2024-04-22 18:42:28,14.98323627,0.0002189,70.0022,333.8645,248.2173,111.8753,0.00041685,4.883e-05,0.0,0 STARLINK-5298,1 55281U 23010N   24113.77949788  .00004883  00000-0  41685-3 0  9997,2 55281  70.0022 333.8645 0002189 248.2173 111.8753 14.98323627 69739,6950.213,96.107,573.599,570.556,0.0
55281.0,STARLINK-5298,PAYLOAD,2024-04-22 21:54:44,14.98338687,0.0001973,70.0019,333.5279,243.0386,117.0572,6.3028e-05,6.59e-06,0.0,0 STARLINK-5298,1 55281U 23010N   24113.91301593  .00000659  00000-0  63028-4 0  9992,2 55281  70.0019 333.5279 0001973 243.0386 117.0572 14.98338687 70050,6950.166,96.106,573.402,570.66,0.0
55281.0,STARLINK-5298,PAYLOAD,2024-04-23 01:07:00,14.9834844,0.0002123,70.0015,333.1909,249.1779,110.9152,-0.00015722,-1.969e-05,0.0,0 STARLINK-5298,1 55281U 23010N   24114.04653256 -.00001969  00000-0 -15722-3 0  9997,2 55281  70.0015 333.1909 0002123 249.1779 110.9152 14.98348440 69774,6950.136,96.106,573.476,570.525,0.0
55281.0,STARLINK-5298,PAYLOAD,2024-04-23 21:56:45,14.98339516,0.0002583,70.0006,331.002,254.9963,105.0911,1.4684e-05,8.2e-07,0.0,0 STARLINK-5298,1 55281U 23010N   24114.91441266  .00000082  00000-0  14684-4 0  9999,2 55281  70.0006 331.0020 0002583 254.9963 105.0911 14.98339516 70206,6950.163,96.106,573.824,570.233,0.0
55281.0,STARLINK-5298,PAYLOAD,2024-04-24 01:09:00,14.98360721,0.0002545,70.0006,330.6651,248.9304,111.1583,-0.00030259,-3.704e-05,0.0,0 STARLINK-5298,1 55281U 23010N   24115.04792296 -.00003704  00000-0 -30259-3 0  9997,2 55281  70.0006 330.6651 0002545 248.9304 111.1583 14.98360721 69923,6950.098,96.105,573.732,570.194,0.0
55281.0,STARLINK-5298,PAYLOAD,2024-04-24 13:58:05,14.9833925,0.0002648,70.0006,329.3187,251.499,108.5882,5.2533e-05,5.34e-06,0.0,0 STARLINK-5298,1 55281U 23010N   24115.58200621  .00000534  00000-0  52533-4 0  9998,2 55281  70.0006 329.3187 0002648 251.4990 108.5882 14.98339250 70305,6950.164,96.106,573.87,570.189,0.0
55281.0,STARLINK-5298,PAYLOAD,2024-04-24 20:22:37,14.98338805,0.0002772,70.0006,328.6452,255.1998,104.8854,3.8294e-05,3.64e-06,0.0,0 STARLINK-5298,1 55281U 23010N   24115.84904542  .00000364  00000-0  38294-4 0  9999,2 55281  70.0006 328.6452 0002772 255.1998 104.8854 14.98338805 70043,6950.166,96.106,573.957,570.104,0.0
55281.0,STARLINK-5298,PAYLOAD,2024-04-24 21:58:45,14.98338768,0.0002684,70.0009,328.4771,247.922,112.1655,4.7234e-05,4.71e-06,0.0,0 STARLINK-5298,1 55281U 23010N   24115.91580462  .00000471  00000-0  47234-4 0  9991,2 55281  70.0009 328.4771 0002684 247.9220 112.1655 14.98338768 70350,6950.166,96.106,573.896,570.165,0.0
55281.0,STARLINK-5298,PAYLOAD,2024-04-24 23:34:53,14.98343219,0.0002799,70.0008,328.307,250.107,109.9788,1.0225e-06,-8.1e-07,0.0,0 STARLINK-5298,1 55281U 23010N   24115.98256215 -.00000081  00000-0  10225-5 0  9993,2 55281  70.0008 328.3070 0002799 250.1070 109.9788 14.98343219 70365,6950.152,96.106,573.962,570.072,0.0
55281.0,STARLINK-5298,PAYLOAD,2024-04-25 20:24:38,14.98326925,0.0002672,70.0013,326.1222,239.3667,120.7229,-3.6541e-05,-5.29e-06,0.0,0 STARLINK-5298,1 55281U 23010N   24116.85045134 -.00000529  00000-0 -36541-4 0  9992,2 55281  70.0013 326.1222 0002672 239.3667 120.7229 14.98326925 70194,6950.202,96.107,573.924,570.21,0.0
55281.0,STARLINK-5298,PAYLOAD,2024-04-25 22:00:46,14.98328489,0.0002727,70.0011,325.9535,239.9615,120.1273,-2.3435e-05,-3.73e-06,0.0,0 STARLINK-5298,1 55281U 23010N   24116.91720991 -.00000373  00000-0 -23435-4 0  9995,2 55281  70.0011 325.9535 0002727 239.9615 120.1273 14.98328489 70501,6950.198,96.107,573.958,570.167,0.0
55281.0,STARLINK-5298,PAYLOAD,2024-04-26 14:02:07,14.98332678,0.0002948,69.9999,324.266,267.7239,92.3582,-3.8962e-05,-5.58e-06,0.0,0 STARLINK-5298,1 55281U 23010N   24117.58480765 -.00000558  00000-0 -38962-4 0  9997,2 55281  69.9999 324.2660 0002948 267.7239  92.3582 14.98332678 70609,6950.185,96.107,574.099,570.001,0.0
55281.0,STARLINK-5298,PAYLOAD,2024-04-26 22:02:47,14.98327024,0.0002706,70.0004,323.4256,260.8783,99.207,-5.1094e-05,-7.02e-06,0.0,0 STARLINK-5298,1 55281U 23010N   24117.91861086 -.00000702  00000-0 -51094-4 0  9995,2 55281  70.0004 323.4256 0002706 260.8783  99.2070 14.98327024 70653,6950.202,96.107,573.948,570.186,0.0
55281.0,STARLINK-5298,PAYLOAD,2024-04-26 23:38:55,14.98332399,0.0002811,70.0002,323.2572,262.2356,97.8484,5.3205e-06,-2.9e-07,0.0,0 STARLINK-5298,1 55281U 23010N   24117.98536610 -.00000029  00000-0  53205-5 0  9992,2 55281  70.0002 323.2572 0002811 262.2356  97.8484 14.98332399 70361,6950.185,96.107,574.004,570.097,0.0
55281.0,STARLINK-5298,PAYLOAD,2024-04-27 14:04:08,14.98328039,0.0002816,69.9998,321.7421,267.6612,92.4225,7.8674e-05,8.46e-06,0.0,0 STARLINK-5298,1 55281U 23010N   24118.58620654  .00000846  00000-0  78674-4 0  9993,2 55281  69.9998 321.7421 0002816 267.6612  92.4225 14.98328039 70750,6950.199,96.107,574.021,570.107,0.0
55281.0,STARLINK-5298,PAYLOAD,2024-04-27 22:04:48,14.98330904,0.0002951,69.9992,320.9008,264.445,95.6372,8.068e-05,8.7e-06,0.0,0 STARLINK-5298,1 55281U 23010N   24118.92000462  .00000870  00000-0  80680-4 0  9997,2 55281  69.9992 320.9008 0002951 264.4450  95.6372 14.98330904 70809,6950.19,96.107,574.106,570.004,0.0
55281.0,STARLINK-5298,PAYLOAD,2024-04-27 23:40:56,14.98331267,0.0002916,69.9993,320.7325,264.2869,95.7958,8.6722e-05,9.42e-06,0.0,0 STARLINK-5298,1 55281U 23010N   24118.98676429  .00000942  00000-0  86722-4 0  9998,2 55281  69.9993 320.7325 0002916 264.2869  95.7958 14.98331267 70515,6950.189,96.107,574.081,570.027,0.0
55281.0,STARLINK-5298,PAYLOAD,2024-04-28 06:05:33,14.98281953,0.000272,69.9996,320.058,268.3683,91.7165,-0.00046166,-5.59e-05,0.0,0 STARLINK-5298,1 55281U 23010N   24119.25385418 -.00005590  00000-0 -46166-3 0  9997,2 55281  69.9996 320.0580 0002720 268.3683  91.7165 14.98281953 70552,6950.341,96.11,574.097,570.316,0.0
55281.0,STARLINK-5298,PAYLOAD,2024-04-28 14:06:13,14.9828332,0.000363,69.9978,319.2141,268.4793,91.595,-0.00042102,-5.107e-05,0.0,0 STARLINK-5298,1 55281U 23010N   24119.58765691 -.00005107  00000-0 -42102-3 0  9998,2 55281  69.9978 319.2141 0003630 268.4793  91.5950 14.98283320 70908,6950.337,96.11,574.725,569.679,0.0
55281.0,STARLINK-5298,PAYLOAD,2024-04-28 20:30:42,14.9832688,0.0002932,69.9989,318.5442,266.2129,93.8695,4.8648e-05,4.87e-06,0.0,0 STARLINK-5298,1 55281U 23010N   24119.85466248  .00000487  00000-0  48648-4 0  9990,2 55281  69.9989 318.5442 0002932 266.2129  93.8695 14.98326880 70640,6950.203,96.107,574.105,570.03,0.0
55281.0,STARLINK-5298,PAYLOAD,2024-04-28 22:06:50,14.98326976,0.0002931,69.9989,318.3758,266.9291,93.1532,5.0486e-05,5.09e-06,0.0,0 STARLINK-5298,1 55281U 23010N   24119.92142277  .00000509  00000-0  50486-4 0  9999,2 55281  69.9989 318.3758 0002931 266.9291  93.1532 14.98326976 70957,6950.202,96.107,574.104,570.03,0.0
55281.0,STARLINK-5298,PAYLOAD,2024-04-29 14:08:11,14.98333209,0.0003257,69.998,316.6908,269.4688,90.6098,0.00010188,1.123e-05,0.0,0 STARLINK-5298,1 55281U 23010N   24120.58901786  .00001123  00000-0  10188-3 0  9998,2 55281  69.9980 316.6908 0003257 269.4688  90.6098 14.98333209 71054,6950.183,96.107,574.312,569.784,0.0
55281.0,STARLINK-5298,PAYLOAD,2024-04-29 20:32:42,14.98338554,0.000313,69.9983,316.0176,270.0027,90.0773,0.00016324,1.856e-05,0.0,0 STARLINK-5298,1 55281U 23010N   24120.85605274  .00001856  00000-0  16324-3 0  9992,2 55281  69.9983 316.0176 0003130 270.0027  90.0773 14.98338554 70795,6950.166,96.106,574.207,569.856,0.0
55281.0,STARLINK-5298,PAYLOAD,2024-04-29 22:08:50,14.98339687,0.0003094,69.9983,315.8493,270.3794,89.701,0.00017596,2.008e-05,0.0,0 STARLINK-5298,1 55281U 23010N   24120.92281172  .00002008  00000-0  17596-3 0  9999,2 55281  69.9983 315.8493 0003094 270.3794  89.7010 14.98339687 71100,6950.163,96.106,574.178,569.878,0.0
55281.0,STARLINK-5298,PAYLOAD,2024-04-30 14:10:12,14.98288918,0.0002612,69.9984,314.166,266.3226,93.7634,0.0011014,0.00013059,0.0,0 STARLINK-5298,1 55281U 23010N   24121.59042573  .00013059  00000-0  11014-2 0  9999,2 55281  69.9984 314.1660 0002612 266.3226  93.7634 14.98288918 71207,6950.32,96.11,574.0,570.37,0.0
55281.0,STARLINK-5298,PAYLOAD,2024-04-30 20:34:43,14.98346187,0.0003059,69.9985,313.4927,269.9971,90.0837,0.00015551,1.764e-05,0.0,0 STARLINK-5298,1 55281U 23010N   24121.85744928  .00001764  00000-0  15551-3 0  9992,2 55281  69.9985 313.4927 0003059 269.9971  90.0837 14.98346187 70946,6950.143,96.106,574.134,569.882,0.0
